THURAYA-2               
1 27825U 03026A   17345.82176207  .00000122  00000-0  00000-0 0  9993
2 27825   5.0767  29.8456 0004971 226.4757 164.2251  1.00273352 53179
